CCSDS_OMM_VERS = 2.0
CREATION_DATE  = 
ORIGINATOR     = 

OBJECT_NAME    = QIANFAN-108
OBJECT_ID      = 2025-233T
CENTER_NAME    = EARTH
REF_FRAME      = TEME
TIME_SYSTEM    = UTC
MEAN_ELEMENT_THEORY = SGP/SGP4

EPOCH          = 2025-11-03T21:07:39.383616
MEAN_MOTION    = 14.26350561
ECCENTRICITY   = .00162847
INCLINATION    = 88.9949
RA_OF_ASC_NODE = 66.5033
ARG_OF_PERICENTER = 157.6435
MEAN_ANOMALY   = 202.5471

EPHEMERIS_TYPE = 0
CLASSIFICATION_TYPE = U
NORAD_CAT_ID   = 66050
ELEMENT_SET_NO = 999
REV_AT_EPOCH   = 250
BSTAR          = .27355127E-3
MEAN_MOTION_DOT = .672E-5
MEAN_MOTION_DDOT = 0

CCSDS_OMM_VERS = 2.0
CREATION_DATE  = 
ORIGINATOR     = 

OBJECT_NAME    = CZ-6A R/B
OBJECT_ID      = 2025-233U
CENTER_NAME    = EARTH
REF_FRAME      = TEME
TIME_SYSTEM    = UTC
MEAN_ELEMENT_THEORY = SGP/SGP4

EPOCH          = 2025-11-03T20:34:45.104736
MEAN_MOTION    = 14.57012050
ECCENTRICITY   = .00858737
INCLINATION    = 89.0288
RA_OF_ASC_NODE = 66.4377
ARG_OF_PERICENTER = 59.7473
MEAN_ANOMALY   = 301.2203

EPHEMERIS_TYPE = 0
CLASSIFICATION_TYPE = U
NORAD_CAT_ID   = 66051
ELEMENT_SET_NO = 999
REV_AT_EPOCH   = 255
BSTAR          = .77606556E-4
MEAN_MOTION_DOT = .386E-5
MEAN_MOTION_DDOT = 0

CCSDS_OMM_VERS = 2.0
CREATION_DATE  = 
ORIGINATOR     = 

OBJECT_NAME    = 2025-234A
OBJECT_ID      = 2025-234A
CENTER_NAME    = EARTH
REF_FRAME      = TEME
TIME_SYSTEM    = UTC
MEAN_ELEMENT_THEORY = SGP/SGP4

EPOCH          = 2025-11-03T21:45:00.093312
MEAN_MOTION    = 15.22329713
ECCENTRICITY   = .00144146
INCLINATION    = 97.4625
RA_OF_ASC_NODE = 13.4520
ARG_OF_PERICENTER = 230.2233
MEAN_ANOMALY   = 129.7734

EPHEMERIS_TYPE = 0
CLASSIFICATION_TYPE = U
NORAD_CAT_ID   = 66053
ELEMENT_SET_NO = 999
REV_AT_EPOCH   = 240
BSTAR          = .13487636E-2
MEAN_MOTION_DOT = .31215E-3
MEAN_MOTION_DDOT = 0

CCSDS_OMM_VERS = 2.0
CREATION_DATE  = 
ORIGINATOR     = 

OBJECT_NAME    = 2025-234B
OBJECT_ID      = 2025-234B
CENTER_NAME    = EARTH
REF_FRAME      = TEME
TIME_SYSTEM    = UTC
MEAN_ELEMENT_THEORY = SGP/SGP4

EPOCH          = 2025-11-03T21:55:33.178944
MEAN_MOTION    = 15.21166250
ECCENTRICITY   = .00139735
INCLINATION    = 97.5051
RA_OF_ASC_NODE = 13.5245
ARG_OF_PERICENTER = 222.2133
MEAN_ANOMALY   = 137.8028

EPHEMERIS_TYPE = 0
CLASSIFICATION_TYPE = U
NORAD_CAT_ID   = 66054
ELEMENT_SET_NO = 999
REV_AT_EPOCH   = 240
BSTAR          = .35726211E-3
MEAN_MOTION_DOT = .7912E-4
MEAN_MOTION_DDOT = 0

CCSDS_OMM_VERS = 2.0
CREATION_DATE  = 
ORIGINATOR     = 

OBJECT_NAME    = 2025-234C
OBJECT_ID      = 2025-234C
CENTER_NAME    = EARTH
REF_FRAME      = TEME
TIME_SYSTEM    = UTC
MEAN_ELEMENT_THEORY = SGP/SGP4

EPOCH          = 2025-11-03T21:53:52.587744
MEAN_MOTION    = 15.21331351
ECCENTRICITY   = .0014627
INCLINATION    = 97.4574
RA_OF_ASC_NODE = 13.4341
ARG_OF_PERICENTER = 224.3910
MEAN_ANOMALY   = 135.6154

EPHEMERIS_TYPE = 0
CLASSIFICATION_TYPE = U
NORAD_CAT_ID   = 66055
ELEMENT_SET_NO = 999
REV_AT_EPOCH   = 240
BSTAR          = .27973105E-3
MEAN_MOTION_DOT = .6211E-4
MEAN_MOTION_DDOT = 0

CCSDS_OMM_VERS = 2.0
CREATION_DATE  = 
ORIGINATOR     = 

OBJECT_NAME    = 2025-234D
OBJECT_ID      = 2025-234D
CENTER_NAME    = EARTH
REF_FRAME      = TEME
TIME_SYSTEM    = UTC
MEAN_ELEMENT_THEORY = SGP/SGP4

EPOCH          = 2025-11-03T21:51:56.055744
MEAN_MOTION    = 15.21698453
ECCENTRICITY   = .0014637
INCLINATION    = 97.4554
RA_OF_ASC_NODE = 13.4317
ARG_OF_PERICENTER = 223.3271
MEAN_ANOMALY   = 136.6815

EPHEMERIS_TYPE = 0
CLASSIFICATION_TYPE = U
NORAD_CAT_ID   = 66056
ELEMENT_SET_NO = 999
REV_AT_EPOCH   = 239
BSTAR          = .9635037E-3
MEAN_MOTION_DOT = .21843E-3
MEAN_MOTION_DDOT = 0

CCSDS_OMM_VERS = 2.0
CREATION_DATE  = 
ORIGINATOR     = 

OBJECT_NAME    = 2025-234E
OBJECT_ID      = 2025-234E
CENTER_NAME    = EARTH
REF_FRAME      = TEME
TIME_SYSTEM    = UTC
MEAN_ELEMENT_THEORY = SGP/SGP4

EPOCH          = 2025-11-03T22:30:29.784672
MEAN_MOTION    = 15.30507757
ECCENTRICITY   = .00152733
INCLINATION    = 97.4873
RA_OF_ASC_NODE = 13.6195
ARG_OF_PERICENTER = 233.7276
MEAN_ANOMALY   = 126.2554

EPHEMERIS_TYPE = 0
CLASSIFICATION_TYPE = U
NORAD_CAT_ID   = 66057
ELEMENT_SET_NO = 999
REV_AT_EPOCH   = 241
BSTAR          = .12289379E-1
MEAN_MOTION_DOT = .381906E-2
MEAN_MOTION_DDOT = 0

CCSDS_OMM_VERS = 2.0
CREATION_DATE  = 
ORIGINATOR     = 

OBJECT_NAME    = STARLINK-35552
OBJECT_ID      = 2025-235A
CENTER_NAME    = EARTH
REF_FRAME      = TEME
TIME_SYSTEM    = UTC
MEAN_ELEMENT_THEORY = SGP/SGP4

EPOCH          = 2025-11-03T22:00:03.000096
MEAN_MOTION    = 15.72515444
ECCENTRICITY   = .00009119
INCLINATION    = 53.1543
RA_OF_ASC_NODE = 113.2183
ARG_OF_PERICENTER = 80.8145
MEAN_ANOMALY   = 236.0500

EPHEMERIS_TYPE = 0
CLASSIFICATION_TYPE = U
NORAD_CAT_ID   = 66058
ELEMENT_SET_NO = 999
REV_AT_EPOCH   = 363
BSTAR          = -.15267705E-1
MEAN_MOTION_DOT = -.1819979E-1
MEAN_MOTION_DDOT = 0

CCSDS_OMM_VERS = 2.0
CREATION_DATE  = 
ORIGINATOR     = 

OBJECT_NAME    = STARLINK-35560
OBJECT_ID      = 2025-235B
CENTER_NAME    = EARTH
REF_FRAME      = TEME
TIME_SYSTEM    = UTC
MEAN_ELEMENT_THEORY = SGP/SGP4

EPOCH          = 2025-11-03T22:00:03.000096
MEAN_MOTION    = 15.72503661
ECCENTRICITY   = .00010518
INCLINATION    = 53.1543
RA_OF_ASC_NODE = 113.2146
ARG_OF_PERICENTER = 77.2586
MEAN_ANOMALY   = 241.5299

EPHEMERIS_TYPE = 0
CLASSIFICATION_TYPE = U
NORAD_CAT_ID   = 66059
ELEMENT_SET_NO = 999
REV_AT_EPOCH   = 363
BSTAR          = -.15166455E-1
MEAN_MOTION_DOT = -.1808759E-1
MEAN_MOTION_DDOT = 0

CCSDS_OMM_VERS = 2.0
CREATION_DATE  = 
ORIGINATOR     = 

OBJECT_NAME    = STARLINK-35558
OBJECT_ID      = 2025-235C
CENTER_NAME    = EARTH
REF_FRAME      = TEME
TIME_SYSTEM    = UTC
MEAN_ELEMENT_THEORY = SGP/SGP4

EPOCH          = 2025-11-03T22:00:03.000096
MEAN_MOTION    = 15.72495653
ECCENTRICITY   = .00010632
INCLINATION    = 53.1546
RA_OF_ASC_NODE = 113.2098
ARG_OF_PERICENTER = 59.1876
MEAN_ANOMALY   = 261.5188

EPHEMERIS_TYPE = 0
CLASSIFICATION_TYPE = U
NORAD_CAT_ID   = 66060
ELEMENT_SET_NO = 999
REV_AT_EPOCH   = 363
BSTAR          = -.1506435E-1
MEAN_MOTION_DOT = -.1797594E-1
MEAN_MOTION_DDOT = 0

CCSDS_OMM_VERS = 2.0
CREATION_DATE  = 
ORIGINATOR     = 

OBJECT_NAME    = STARLINK-35566
OBJECT_ID      = 2025-235D
CENTER_NAME    = EARTH
REF_FRAME      = TEME
TIME_SYSTEM    = UTC
MEAN_ELEMENT_THEORY = SGP/SGP4

EPOCH          = 2025-11-03T22:00:03.000096
MEAN_MOTION    = 15.72502202
ECCENTRICITY   = .00009739
INCLINATION    = 53.1573
RA_OF_ASC_NODE = 113.2064
ARG_OF_PERICENTER = 67.6020
MEAN_ANOMALY   = 255.0235

EPHEMERIS_TYPE = 0
CLASSIFICATION_TYPE = U
NORAD_CAT_ID   = 66061
ELEMENT_SET_NO = 999
REV_AT_EPOCH   = 363
BSTAR          = -.15163911E-1
MEAN_MOTION_DOT = -.180833E-1
MEAN_MOTION_DDOT = 0

CCSDS_OMM_VERS = 2.0
CREATION_DATE  = 
ORIGINATOR     = 

OBJECT_NAME    = STARLINK-35421
OBJECT_ID      = 2025-235E
CENTER_NAME    = EARTH
REF_FRAME      = TEME
TIME_SYSTEM    = UTC
MEAN_ELEMENT_THEORY = SGP/SGP4

EPOCH          = 2025-11-03T22:00:03.000096
MEAN_MOTION    = 15.72345839
ECCENTRICITY   = .00008036
INCLINATION    = 53.1566
RA_OF_ASC_NODE = 113.2014
ARG_OF_PERICENTER = 94.2388
MEAN_ANOMALY   = 230.4823

EPHEMERIS_TYPE = 0
CLASSIFICATION_TYPE = U
NORAD_CAT_ID   = 66062
ELEMENT_SET_NO = 999
REV_AT_EPOCH   = 363
BSTAR          = -.14313463E-1
MEAN_MOTION_DOT = -.1708892E-1
MEAN_MOTION_DDOT = 0

