QIANFAN-108             
1 66050U 25233T   25307.88031694  .00000672  00000+0  27355-3 0  9997
2 66050  88.9949  66.5033 0016284 157.6435 202.5471 14.26350561  2502
CZ-6A R/B               
1 66051U 25233U   25307.85746649  .00000386  00000+0  77607-4 0  9996
2 66051  89.0288  66.4377 0085873  59.7473 301.2203 14.57012050  2552
2025-234A               
1 66053U 25234A   25307.90625108  .00031215  00000+0  13488-2 0  9991
2 66053  97.4625  13.4520 0014414 230.2233 129.7734 15.22329713  2403
2025-234B               
1 66054U 25234B   25307.91357846  .00007912  00000+0  35726-3 0  9991
2 66054  97.5051  13.5245 0013973 222.2133 137.8028 15.21166250  2402
2025-234C               
1 66055U 25234C   25307.91241421  .00006211  00000+0  27973-3 0  9999
2 66055  97.4574  13.4341 0014627 224.3910 135.6154 15.21331351  2403
2025-234D               
1 66056U 25234D   25307.91106546  .00021843  00000+0  96350-3 0  9991
2 66056  97.4554  13.4317 0014637 223.3271 136.6815 15.21698453  2397
2025-234E               
1 66057U 25234E   25307.93784473  .00381906  00000+0  12289-1 0  9991
2 66057  97.4873  13.6195 0015273 233.7276 126.2554 15.30507757  2419
STARLINK-35552          
1 66058U 25235A   25307.91670139 -.01819979  00000+0 -15268-1 0  9993
2 66058  53.1543 113.2183 0000911  80.8145 236.0500 15.72515444  3630
STARLINK-35560          
1 66059U 25235B   25307.91670139 -.01808759  00000+0 -15166-1 0  9995
2 66059  53.1543 113.2146 0001051  77.2586 241.5299 15.72503661  3639
STARLINK-35558          
1 66060U 25235C   25307.91670139 -.01797594  00000+0 -15064-1 0  9998
2 66060  53.1546 113.2098 0001063  59.1876 261.5188 15.72495653  3634
STARLINK-35566          
1 66061U 25235D   25307.91670139 -.01808330  00000+0 -15164-1 0  9991
2 66061  53.1573 113.2064 0000973  67.6020 255.0235 15.72502202  3632
STARLINK-35421          
1 66062U 25235E   25307.91670139 -.01708892  00000+0 -14313-1 0  9999
2 66062  53.1566 113.2014 0000803  94.2388 230.4823 15.72345839  3636
